IRIDIUM 112             
1 41925U 17003J   24090.93502318  .00000200  00000+0  64473-4 0  9997
2 41925  86.3935  66.0744 0002048  91.2264 268.9167 14.34216856377424
IRIDIUM 111             
1 41926U 17003K   24090.92232087  .00000780  00000+0  27159-3 0  9992
2 41926  86.3936  66.1326 0002356  95.8160 264.3305 14.34214802377401
IRIDIUM 113             
1 42803U 17039A   24090.83252975  .00000449  00000+0  15342-3 0  9997
2 42803  86.3933 299.9656 0002168  92.9031 267.2412 14.34213547355324
IRIDIUM 123             
1 42804U 17039B   24090.59494438  .00000469  00000+0  16040-3 0  9991
2 42804  86.3987 331.5713 0002222  90.3149 269.8302 14.34216737354053
IRIDIUM 115             
1 42806U 17039D   24090.85959261  .00000231  00000+0  62785-4 0  9997
2 42806  86.4460 299.8546 0002131  93.7700 266.3745 14.43276667357673
IRIDIUM 118             
1 42807U 17039E   24090.90573468  .00000541  00000+0  18628-3 0  9995
2 42807  86.3989 331.4426 0001944  84.0215 276.1203 14.34215669354090
IRIDIUM 117             
1 42808U 17039F   24090.92474968  .00000533  00000+0  18331-3 0  9995
2 42808  86.3988 331.4001 0002296  89.6647 270.4812 14.34218969354123
